{
    "links": {
        "self": "http://www.neowsapp.com/rest/v1/neo/3740933?api_key=iIulBulltgU6a56xZRHN4H3l9WmuAYTsLGpBGhQ2"
    },
    "id": "3740933",
    "neo_reference_id": "3740933",
    "name": "(2016 BC15)",
    "designation": "2016 BC15",
    "nasa_jpl_url": "http://ssd.jpl.nasa.gov/sbdb.cgi?sstr=3740933",
    "absolute_magnitude_h": 25.0,
    "estimated_diameter": {
        "kilometers": {
            "estimated_diameter_min": 0.02658,
            "estimated_diameter_max": 0.0594346868
        },
        "meters": {
            "estimated_diameter_min": 26.58,
            "estimated_diameter_max": 59.4346868419
        },
        "miles": {
            "estimated_diameter_min": 0.0165160412,
            "estimated_diameter_max": 0.0369309908
        },
        "feet": {
            "estimated_diameter_min": 87.2047272,
            "estimated_diameter_max": 194.9956979785
        }
    },
    "is_potentially_hazardous_asteroid": false,
    "close_approach_data": [
        {
            "close_approach_date": "2016-02-08",
            "close_approach_date_full": "2016-Feb-08 21:52",
            "epoch_date_close_approach": 1454968320000,
            "relative_velocity": {
                "kilometers_per_second": "8.3475272418",
                "kilometers_per_hour": "30051.0980704363",
                "miles_per_hour": "18672.5836871553"
            },
            "miss_distance": {
                "astronomical": "0.075660936",
                "lunar": "29.432104104",
                "kilometers": "11318714.86780632",
                "miles": "7033123.288594416"
            },
            "orbiting_body": "Earth"
        }
    ],
    "orbital_data": {
        "orbit_id": "10",
        "orbit_determination_date": "2017-04-06 08:28:52",
        "first_observation_date": "2016-01-29",
        "last_observation_date": "2016-02-12",
        "data_arc_in_days": 14,
        "observations_used": 72,
        "orbit_uncertainty": "8",
        "minimum_orbit_intersection": ".0748122",
        "jupiter_tisserand_invariant": "4.037",
        "epoch_osculation": "2457419.5",
        "eccentricity": ".3968797214457785",
        "semi_major_axis": "1.732985142996381",
        "inclination": "12.54802991612133",
        "ascending_node_longitude": "311.3218105748941",
        "orbital_period": "833.2794779088052",
        "perihelion_distance": "1.045198482174305",
        "perihelion_argument": "202.4816743089053",
        "aphelion_distance": "2.420771803818458",
        "perihelion_time": "2457441.206120522467",
        "mean_anomaly": "350.6223498895009",
        "mean_motion": ".432027920456477",
        "equinox": "J2000",
        "orbit_class": {
            "orbit_class_type": "AMO",
            "orbit_class_description": "Near-Earth asteroid orbits similar to that of 1221 Amor",
            "orbit_class_range": "1.017 AU < q (perihelion) < 1.3 AU"
        }
    },
    "is_sentry_object": false
}